*******************************************************************************
 Revised: Jan 15, 2010                 Mars                             499 / 4
 
 GEOPHYSICAL DATA (updated 2009-May-26):
  Mean radius (km)      = 3389.9(2+-4)    Density (g cm^-3)     =  3.933(5+-4)
  Mass (10^23 kg )      =    6.4185       Flattening, f         =  1/154.409
  Volume (x10^10 km^3)  =   16.318        Semi-major axis       =  3397+-4
  Sidereal rot. period  =   24.622962 hr  Rot. Rate (x10^5 s)   =  7.088218
  Mean solar day        =    1.0274907 d  Polar gravity ms^-2   =  3.758
  Mom. of Inertia       =    0.366        Equ. gravity  ms^-2   =  3.71
  Core radius (km)      =  ~1700          Potential Love # k2   =  0.153 +-.017
 
  Grav spectral fact u  =   14 (x10^5)    Topo. spectral fact t = 96 (x10^5)
  Fig. offset (Rcf-Rcm) = 2.50+-0.07 km   Offset (lat./long.)   = 62d / 88d
  GM (km^3 s^-2)        = 42828.3         Equatorial Radius, Re = 3394.0 km 
  GM 1-sigma (km^3 s^-2)= +- 0.1          Mass ratio (Sun/Mars) = 3098708+-9
  
  Atmos. pressure (bar) =    0.0056       Max. angular diam.    =  17.9"
  Mean Temperature (K)  =  210            Visual mag. V(1,0)    =  -1.52
  Geometric albedo      =    0.150        Obliquity to orbit    =  25.19 deg
  Mean sidereal orb per =    1.88081578 y Orbit vel.  km/s      =  24.1309
  Mean sidereal orb per =  686.98 d       Escape vel. km/s      =   5.027
  Hill's sphere rad. Rp =  319.8          Mag. mom (gauss Rp^3) = < 1x10^-4 
*******************************************************************************
 
 
*******************************************************************************
Ephemeris / WWW_USER Thu May  6 09:26:52 2010  Pasadena, USA     / Horizons    
*******************************************************************************
Target body name: Mars (499)                      {source: MAR085}
Center body name: Solar System Barycenter (0)     {source: DE405}
Center-site name: BODY CENTER
*******************************************************************************
Start time      : A.D. 2010-May-05 00:00:00.0000 CT 
Stop  time      : A.D. 2015-May-05 00:00:00.0000 CT 
Step-size       : 1440 minutes
*******************************************************************************
Center geodetic : 0.00000000,0.00000000,0.0000000 {E-lon(deg),Lat(deg),Alt(km)}
Center cylindric: 0.00000000,0.00000000,0.0000000 {E-lon(deg),Dxy(km),Dz(km)}
Center radii    : (undefined)                                                  
Output units    : AU-D                                                         
Output format   : 02
Reference frame : ICRF/J2000.0                                                 
Output type     : GEOMETRIC cartesian states
Coordinate systm: Ecliptic and Mean Equinox of Reference Epoch                 
*******************************************************************************
JDCT 
   X     Y     Z
   VX    VY    VZ
*******************************************************************************
$$SOE
2456371.500000000 = A.D. 2013-Mar-20 00:00:00.0000 (CT)
   1.378187761000884E+00  2.506054732578796E-01 -2.860661240345330E-02
  -1.983478970741922E-03  1.495687957747923E-02  3.621016367530369E-04
2456372.500000000 = A.D. 2013-Mar-21 00:00:00.0000 (CT)
   1.376130369051402E+00  2.655485170949012E-01 -2.824298606480449E-02
  -2.131228970848252E-03  1.492894842490980E-02  3.651437230232857E-04
2456373.500000000 = A.D. 2013-Mar-22 00:00:00.0000 (CT)
   1.373925457936979E+00  2.804628522818859E-01 -2.787633959660996E-02
  -2.278514262114449E-03  1.489946377722668E-02  3.681418514743614E-04
2456374.500000000 = A.D. 2013-Mar-23 00:00:00.0000 (CT)
   1.371573501440802E+00  2.953469297602646E-01 -2.750671709072348E-02
  -2.425316745365977E-03  1.486843453976479E-02  3.710957631847503E-04
2456375.500000000 = A.D. 2013-Mar-24 00:00:00.0000 (CT)
   1.369074991347097E+00  3.101992095103162E-01 -2.713416289196090E-02
  -2.571618513337062E-03  1.483586986583220E-02  3.740052076371191E-04
2456376.500000000 = A.D. 2013-Mar-25 00:00:00.0000 (CT)
   1.366430437242872E+00  3.250181607863062E-01 -2.675872158831981E-02
  -2.717401855230988E-03  1.480177915279292E-02  3.768699432015014E-04
2456377.500000000 = A.D. 2013-Mar-26 00:00:00.0000 (CT)
   1.363640366315358E+00  3.398022623476550E-01 -2.638043800069933E-02
  -2.862649264980890E-03  1.476617203081308E-02  3.796897388966602E-04
2456378.500000000 = A.D. 2013-Mar-27 00:00:00.0000 (CT)
   1.360705323146634E+00  3.545500026860234E-01 -2.599935717277002E-02
  -3.007343452608649E-03  1.472905835102747E-02  3.824643778135130E-04
2456379.500000000 = A.D. 2013-Mar-28 00:00:00.0000 (CT)
   1.357625869506018E+00  3.692598802467381E-01 -2.561552436137676E-02
  -3.151467348370447E-03  1.469044817606372E-02  3.851936574955152E-04
2456380.500000000 = A.D. 2013-Mar-29 00:00:00.0000 (CT)
   1.354402584139574E+00  3.839304036437207E-01 -2.522898502715282E-02
  -3.295004094252727E-03  1.465035177489028E-02  3.878773845546761E-04
2456381.500000000 = A.D. 2013-Mar-30 00:00:00.0000 (CT)
   1.351036062556066E+00  3.985600918692013E-01 -2.483978482485853E-02
  -3.437937035584786E-03  1.460877962211267E-02  3.905153694567459E-04
2456382.500000000 = A.D. 2013-Mar-31 00:00:00.0000 (CT)
   1.347526916809862E+00  4.131474744997854E-01 -2.444796959348692E-02
  -3.580249725552405E-03  1.456574239689944E-02  3.931074274359806E-04
2456383.500000000 = A.D. 2013-Apr-01 00:00:00.0000 (CT)
   1.343875775281905E+00  4.276910918984904E-01 -2.405358534665099E-02
  -3.721925937382312E-03  1.452125098124465E-02  3.956533832627454E-04
2456384.500000000 = A.D. 2013-Apr-02 00:00:00.0000 (CT)
   1.340083282458838E+00  4.421894954110712E-01 -2.365667826339032E-02
  -3.862949673257325E-03  1.447531645888803E-02  3.981530746990490E-04
2456385.500000000 = A.D. 2013-Apr-03 00:00:00.0000 (CT)
   1.336150098709195E+00  4.566412475559782E-01 -2.325729467886239E-02
  -4.003305167378472E-03  1.442795010919454E-02  4.006063528177361E-04
2456386.500000000 = A.D. 2013-Apr-04 00:00:00.0000 (CT)
   1.332076900056156E+00  4.710449222089553E-01 -2.285548107451322E-02
  -4.142976886207078E-03  1.437916339112312E-02  4.030130802428350E-04
2456387.500000000 = A.D. 2013-Apr-05 00:00:00.0000 (CT)
   1.327864377948116E+00  4.853991047832707E-01 -2.245128406816892E-02
  -4.281949526429497E-03  1.432896792686678E-02  4.053731283533728E-04
2456388.500000000 = A.D. 2013-Apr-06 00:00:00.0000 (CT)
   1.323513239028623E+00  4.997023924052138E-01 -2.204475040478763E-02
  -4.420208012068016E-03  1.427737550030977E-02  4.076863752355231E-04
2456389.500000000 = A.D. 2013-Apr-07 00:00:00.0000 (CT)
   1.319024204905438E+00  5.139533940838291E-01 -2.163592694780795E-02
  -4.557737494132874E-03  1.422439806598091E-02  4.099527056203662E-04
2456390.500000000 = A.D. 2013-Apr-08 00:00:00.0000 (CT)
   1.314398011917221E+00  5.281507308748087E-01 -2.122486067031734E-02
  -4.694523352566258E-03  1.417004775153907E-02  4.121720114235501E-04
2456391.500000000 = A.D. 2013-Apr-09 00:00:00.0000 (CT)
   1.309635410897385E+00  5.422930360396755E-01 -2.081159864564907E-02
  -4.830551200820501E-03  1.411433684932501E-02  4.143441927640443E-04
2456392.500000000 = A.D. 2013-Apr-10 00:00:00.0000 (CT)
   1.304737166936350E+00  5.563789552009243E-01 -2.039618803787333E-02
  -4.965806894892925E-03  1.405727780490052E-02  4.164691610421958E-04
2456393.500000000 = A.D. 2013-Apr-11 00:00:00.0000 (CT)
   1.299704059143340E+00  5.704071464920820E-01 -1.997867609277749E-02
  -5.100276541513690E-03  1.399888320757049E-02  4.185468420144529E-04
2456394.500000000 = A.D. 2013-Apr-12 00:00:00.0000 (CT)
   1.294536880407424E+00  5.843762807012282E-01 -1.955911012926814E-02
  -5.233946495354431E-03  1.393916578187201E-02  4.205771738193561E-04
2456395.500000000 = A.D. 2013-Apr-13 00:00:00.0000 (CT)
   1.289236437156971E+00  5.982850414083082E-01 -1.913753753069386E-02
  -5.366803346546522E-03  1.387813838160008E-02  4.225601003996529E-04
2456396.500000000 = A.D. 2013-Apr-14 00:00:00.0000 (CT)
   1.283803549117589E+00  6.121321251180917E-01 -1.871400573591924E-02
  -5.498833914448736E-03  1.381581398829478E-02  4.244955680437723E-04
2456397.500000000 = A.D. 2013-Apr-15 00:00:00.0000 (CT)
   1.278239049069628E+00  6.259162413895509E-01 -1.828856223054581E-02
  -5.630025254687475E-03  1.375220571131414E-02  4.263835285006164E-04
2456398.500000000 = A.D. 2013-Apr-16 00:00:00.0000 (CT)
   1.272543782605825E+00  6.396361129603673E-01 -1.786125453863378E-02
  -5.760364668830140E-03  1.368732678812277E-02  4.282239436324518E-04
2456399.500000000 = A.D. 2013-Apr-17 00:00:00.0000 (CT)
   1.266718607888341E+00  6.532904758652357E-01 -1.743213021462192E-02
  -5.889839708051536E-03  1.362119058218536E-02  4.300167871262799E-04
2456400.500000000 = A.D. 2013-Apr-18 00:00:00.0000 (CT)
   1.260764395404152E+00  6.668780795484176E-01 -1.700123683485016E-02
  -6.018438173102771E-03  1.355381057255527E-02  4.317620438042456E-04
2456401.500000000 = A.D. 2013-Apr-19 00:00:00.0000 (CT)
   1.254682027719267E+00  6.803976869718404E-01 -1.656862198871665E-02
  -6.146148113957445E-03  1.348520033600156E-02  4.334597082814219E-04
2456402.500000000 = A.D. 2013-Apr-20 00:00:00.0000 (CT)
   1.248472399233394E+00  6.938480747189747E-01 -1.613433327020668E-02
  -6.272957826625762E-03  1.341537353521793E-02  4.351097828330980E-04
2456403.500000000 = A.D. 2013-Apr-21 00:00:00.0000 (CT)
   1.242136415935905E+00  7.072280330934220E-01 -1.569841827023854E-02
  -6.398855847500256E-03  1.334434392287156E-02  4.367122752541058E-04
2456404.500000000 = A.D. 2013-Apr-22 00:00:00.0000 (CT)
   1.235674995161907E+00  7.205363662117874E-01 -1.526092456927421E-02
  -6.523830950345364E-03  1.327212535005933E-02  4.382671981956763E-04
2456405.500000000 = A.D. 2013-Apr-23 00:00:00.0000 (CT)
   1.229089065347173E+00  7.337718920917203E-01 -1.482189972947190E-02
  -6.647872147550133E-03  1.319873176421690E-02  4.397745697598758E-04
